{"type": "FeatureCollection", "features": [ {"type": "Feature", "properties": {"norad_id": 34685, "name": "COSMOS 2251 DEB", "group": "cosmos-2251-debris", "lat": -50.87658861733728, "lon": -37.596726841697006, "alt_km": 697.4426301881003, "timestamp": "2025-12-26T22:28:06.180474+00:00", "meta": {"OBJECT_NAME": "COSMOS 2251 DEB", "OBJECT_ID": "1993-036YF", "EPOCH": "2025-12-26T14:54:43.184160", "MEAN_MOTION": 14.57632396, "ECCENTRICITY": 0.0014147, "INCLINATION": 74.0295, "RA_OF_ASC_NODE": 122.3864, "ARG_OF_PERICENTER": 227.7376, "MEAN_ANOMALY": 154.4807, "EPHEMERIS_TYPE": 0, "CLASSIFICATION_TYPE": "U", "NORAD_CAT_ID": 34685, "ELEMENT_SET_NO": 999, "REV_AT_EPOCH": 88734, "BSTAR": 0.0011969, "MEAN_MOTION_DOT": 5.438e-05, "MEAN_MOTION_DDOT": 0}, "tle": {"line1": "1 34685U 93036YF  25360.62133315  .00005438  00000+0  11969-2 0  9994", "line2": "2 34685  74.0295 122.3864 0014147 227.7376 154.4807 14.57632396887347"}}, "geometry": {"type": "Point", "coordinates": [-37.596726841697006, -50.87658861733728]}}, {"type": "Feature", "properties": {"norad_id": 34689, "name": "COSMOS 2251 DEB", "group": "cosmos-2251-debris", "lat": -62.370076115564395, "lon": 51.717121806778046, "alt_km": 727.4721780134632, "timestamp": "2025-12-26T22:28:06.180485+00:00", "meta": {"OBJECT_NAME": "COSMOS 2251 DEB", "OBJECT_ID": "1993-036YK", "EPOCH": "2025-12-26T14:43:37.408224", "MEAN_MOTION": 14.04610227, "ECCENTRICITY": 0.0226452, "INCLINATION": 74.0872, "RA_OF_ASC_NODE": 199.2539, "ARG_OF_PERICENTER": 265.0124, "MEAN_ANOMALY": 152.4222, "EPHEMERIS_TYPE": 0, "CLASSIFICATION_TYPE": "U", "NORAD_CAT_ID": 34689, "ELEMENT_SET_NO": 999, "REV_AT_EPOCH": 84536, "BSTAR": 0.0031359, "MEAN_MOTION_DOT": 6.283e-05, "MEAN_MOTION_DDOT": 0}, "tle": {"line1": "1 34689U 93036YK  25360.61362741  .00006283  00000+0  31359-2 0  9998", "line2": "2 34689  74.0872 199.2539 0226452 265.0124 152.4222 14.04610227845360"}}, "geometry": {"type": "Point", "coordinates": [51.717121806778046, -62.370076115564395]}}, {"type": "Feature", "properties": {"norad_id": 34721, "name": "COSMOS 2251 DEB", "group": "cosmos-2251-debris", "lat": -63.01365969294241, "lon": 156.11023827667046, "alt_km": 751.6338592639777, "timestamp": "2025-12-26T22:28:06.180495+00:00", "meta": {"OBJECT_NAME": "COSMOS 2251 DEB", "OBJECT_ID": "1993-036YP", "EPOCH": "2025-12-25T15:12:34.316928", "MEAN_MOTION": 13.96900478, "ECCENTRICITY": 0.0222577, "INCLINATION": 73.9235, "RA_OF_ASC_NODE": 303.8768, "ARG_OF_PERICENTER": 240.4474, "MEAN_ANOMALY": 299.788, "EPHEMERIS_TYPE": 0, "CLASSIFICATION_TYPE": "U", "NORAD_CAT_ID": 34721, "ELEMENT_SET_NO": 999, "REV_AT_EPOCH": 85329, "BSTAR": 0.0010824, "MEAN_MOTION_DOT": 1.832e-05, "MEAN_MOTION_DDOT": 0}, "tle": {"line1": "1 34721U 93036YP  25359.63373052  .00001832  00000+0  10824-2 0  9991", "line2": "2 34721  73.9235 303.8768 0222577 240.4474 299.7880 13.96900478853290"}}, "geometry": {"type": "Point", "coordinates": [156.11023827667046, -63.01365969294241]}}, {"type": "Feature", "properties": {"norad_id": 34722, "name": "COSMOS 2251 DEB", "group": "cosmos-2251-debris", "lat": 17.88164054478846, "lon": 125.39098622315524, "alt_km": 814.6862352983262, "timestamp": "2025-12-26T22:28:06.180506+00:00", "meta": {"OBJECT_NAME": "COSMOS 2251 DEB", "OBJECT_ID": "1993-036YQ", "EPOCH": "2025-12-25T22:10:17.507136", "MEAN_MOTION": 14.11971511, "ECCENTRICITY": 0.0166401, "INCLINATION": 73.8736, "RA_OF_ASC_NODE": 312.5518, "ARG_OF_PERICENTER": 235.7883, "MEAN_ANOMALY": 183.3029, "EPHEMERIS_TYPE": 0, "CLASSIFICATION_TYPE": "U", "NORAD_CAT_ID": 34722, "ELEMENT_SET_NO": 999, "REV_AT_EPOCH": 86431, "BSTAR": 0.00064598, "MEAN_MOTION_DOT": 1.32e-05, "MEAN_MOTION_DDOT": 0}, "tle": {"line1": "1 34722U 93036YQ  25359.92381374  .00001320  00000+0  64598-3 0  9990", "line2": "2 34722  73.8736 312.5518 0166401 235.7883 183.3029 14.11971511864312"}}, "geometry": {"type": "Point", "coordinates": [125.39098622315524, 17.88164054478846]}}, {"type": "Feature", "properties": {"norad_id": 34726, "name": "COSMOS 2251 DEB", "group": "cosmos-2251-debris", "lat": 71.7331342304748, "lon": 79.05907889120905, "alt_km": 658.0981333296859, "timestamp": "2025-12-26T22:28:06.180516+00:00", "meta": {"OBJECT_NAME": "COSMOS 2251 DEB", "OBJECT_ID": "1993-036YU", "EPOCH": "2025-12-26T15:26:18.564288", "MEAN_MOTION": 14.59537968, "ECCENTRICITY": 0.0041679, "INCLINATION": 74.0294, "RA_OF_ASC_NODE": 319.8001, "ARG_OF_PERICENTER": 106.0829, "MEAN_ANOMALY": 254.4931, "EPHEMERIS_TYPE": 0, "CLASSIFICATION_TYPE": "U", "NORAD_CAT_ID": 34726, "ELEMENT_SET_NO": 999, "REV_AT_EPOCH": 88705, "BSTAR": 0.00051829, "MEAN_MOTION_DOT": 2.463e-05, "MEAN_MOTION_DDOT": 0}, "tle": {"line1": "1 34726U 93036YU  25360.64327042  .00002463  00000+0  51829-3 0  9999", "line2": "2 34726  74.0294 319.8001 0041679 106.0829 254.4931 14.59537968887058"}}, "geometry": {"type": "Point", "coordinates": [79.05907889120905, 71.7331342304748]}}, {"type": "Feature", "properties": {"norad_id": 34728, "name": "COSMOS 2251 DEB", "group": "cosmos-2251-debris", "lat": -18.33416337822044, "lon": 49.624575719610995, "alt_km": 692.0584508749225, "timestamp": "2025-12-26T22:28:06.180526+00:00", "meta": {"OBJECT_NAME": "COSMOS 2251 DEB", "OBJECT_ID": "1993-036YW", "EPOCH": "2025-12-26T10:08:29.480352", "MEAN_MOTION": 14.70958778, "ECCENTRICITY": 0.0041736, "INCLINATION": 74.0158, "RA_OF_ASC_NODE": 225.1722, "ARG_OF_PERICENTER": 19.1456, "MEAN_ANOMALY": 341.1272, "EPHEMERIS_TYPE": 0, "CLASSIFICATION_TYPE": "U", "NORAD_CAT_ID": 34728, "ELEMENT_SET_NO": 999, "REV_AT_EPOCH": 89001, "BSTAR": 0.00063555, "MEAN_MOTION_DOT": 3.918e-05, "MEAN_MOTION_DDOT": 0}, "tle": {"line1": "1 34728U 93036YW  25360.42256343  .00003918  00000+0  63555-3 0  9997", "line2": "2 34728  74.0158 225.1722 0041736  19.1456 341.1272 14.70958778890013"}}, "geometry": {"type": "Point", "coordinates": [49.624575719610995, -18.33416337822044]}}, {"type": "Feature", "properties": {"norad_id": 34729, "name": "COSMOS 2251 DEB", "group": "cosmos-2251-debris", "lat": 64.69898819850022, "lon": 112.98266325915098, "alt_km": 605.038726723441, "timestamp": "2025-12-26T22:28:06.180537+00:00", "meta": {"OBJECT_NAME": "COSMOS 2251 DEB", "OBJECT_ID": "1993-036YX", "EPOCH": "2025-12-26T16:18:00.675072", "MEAN_MOTION": 14.83203682, "ECCENTRICITY": 0.0012108, "INCLINATION": 74.0185, "RA_OF_ASC_NODE": 330.8111, "ARG_OF_PERICENTER": 82.6009, "MEAN_ANOMALY": 95.4353, "EPHEMERIS_TYPE": 0, "CLASSIFICATION_TYPE": "U", "NORAD_CAT_ID": 34729, "ELEMENT_SET_NO": 999, "REV_AT_EPOCH": 88664, "BSTAR": 0.0021254, "MEAN_MOTION_DOT": 0.00017393, "MEAN_MOTION_DDOT": 0}, "tle": {"line1": "1 34729U 93036YX  25360.67917448  .00017393  00000+0  21254-2 0  9996", "line2": "2 34729  74.0185 330.8111 0012108  82.6009  95.4353 14.83203682886644"}}, "geometry": {"type": "Point", "coordinates": [112.98266325915098, 64.69898819850022]}}, {"type": "Feature", "properties": {"norad_id": 34732, "name": "COSMOS 2251 DEB", "group": "cosmos-2251-debris", "lat": -43.780749133614044, "lon": 50.74758045810603, "alt_km": 745.156168373619, "timestamp": "2025-12-26T22:28:06.180547+00:00", "meta": {"OBJECT_NAME": "COSMOS 2251 DEB", "OBJECT_ID": "1993-036ZA", "EPOCH": "2025-12-26T11:09:52.231104", "MEAN_MOTION": 14.47315667, "ECCENTRICITY": 0.0040042, "INCLINATION": 74.0455, "RA_OF_ASC_NODE": 67.5387, "ARG_OF_PERICENTER": 215.9347, "MEAN_ANOMALY": 164.6286, "EPHEMERIS_TYPE": 0, "CLASSIFICATION_TYPE": "U", "NORAD_CAT_ID": 34732, "ELEMENT_SET_NO": 999, "REV_AT_EPOCH": 88342, "BSTAR": 0.00014622, "MEAN_MOTION_DOT": 5.13e-06, "MEAN_MOTION_DDOT": 0}, "tle": {"line1": "1 34732U 93036ZA  25360.46518786  .00000513  00000+0  14622-3 0  9997", "line2": "2 34732  74.0455  67.5387 0040042 215.9347 164.6286 14.47315667883425"}}, "geometry": {"type": "Point", "coordinates": [50.74758045810603, -43.780749133614044]}}, {"type": "Feature", "properties": {"norad_id": 34736, "name": "COSMOS 2251 DEB", "group": "cosmos-2251-debris", "lat": 49.737485419143084, "lon": 165.01299615504087, "alt_km": 382.58197092822047, "timestamp": "2025-12-26T22:28:06.180557+00:00", "meta": {"OBJECT_NAME": "COSMOS 2251 DEB", "OBJECT_ID": "1993-036ZE", "EPOCH": "2025-12-26T11:09:44.310816", "MEAN_MOTION": 15.6128001, "ECCENTRICITY": 0.0009292, "INCLINATION": 73.9968, "RA_OF_ASC_NODE": 5.8756, "ARG_OF_PERICENTER": 335.4778, "MEAN_ANOMALY": 24.5997, "EPHEMERIS_TYPE": 0, "CLASSIFICATION_TYPE": "U", "NORAD_CAT_ID": 34736, "ELEMENT_SET_NO": 999, "REV_AT_EPOCH": 88661, "BSTAR": 0.0094893, "MEAN_MOTION_DOT": 0.00885322, "MEAN_MOTION_DDOT": 0}, "tle": {"line1": "1 34736U 93036ZE  25360.46509619  .00885322  00000+0  94893-2 0  9992", "line2": "2 34736  73.9968   5.8756 0009292 335.4778  24.5997 15.61280010886616"}}, "geometry": {"type": "Point", "coordinates": [165.01299615504087, 49.737485419143084]}}, {"type": "Feature", "properties": {"norad_id": 34738, "name": "COSMOS 2251 DEB", "group": "cosmos-2251-debris", "lat": -60.07649543127129, "lon": 86.86527592121821, "alt_km": 716.7240919061314, "timestamp": "2025-12-26T22:28:06.180568+00:00", "meta": {"OBJECT_NAME": "COSMOS 2251 DEB", "OBJECT_ID": "1993-036ZG", "EPOCH": "2025-12-26T14:30:55.417248", "MEAN_MOTION": 14.46334745, "ECCENTRICITY": 0.0047601, "INCLINATION": 74.0158, "RA_OF_ASC_NODE": 117.3521, "ARG_OF_PERICENTER": 261.0965, "MEAN_ANOMALY": 109.572, "EPHEMERIS_TYPE": 0, "CLASSIFICATION_TYPE": "U", "NORAD_CAT_ID": 34738, "ELEMENT_SET_NO": 999, "REV_AT_EPOCH": 88059, "BSTAR": 0.00037173, "MEAN_MOTION_DOT": 1.324e-05, "MEAN_MOTION_DDOT": 0}, "tle": {"line1": "1 34738U 93036ZG  25360.60480807  .00001324  00000+0  37173-3 0  9998", "line2": "2 34738  74.0158 117.3521 0047601 261.0965 109.5720 14.46334745880594"}}, "geometry": {"type": "Point", "coordinates": [86.86527592121821, -60.07649543127129]}}]}